{"fetched_at":"2026-07-06T18:35:16.154Z","source":"https://celestrak.org/NORAD/elements/gp.php?GROUP=planet&FORMAT=JSON","constellation":"superdove","records":[{"OBJECT_NAME":"FLOCK 4G-25","OBJECT_ID":"2025-009AP","EPOCH":"2026-07-06T03:52:28.310592","CLASSIFICATION_TYPE":"U","MEAN_MOTION":15.29879358,"ECCENTRICITY":0.00015554,"INCLINATION":97.4008,"RA_OF_ASC_NODE":269.16,"ARG_OF_PERICENTER":185.1131,"MEAN_ANOMALY":175.0094,"EPHEMERIS_TYPE":0,"NORAD_CAT_ID":62646,"ELEMENT_SET_NO":999,"REV_AT_EPOCH":8182,"BSTAR":0.00039974815,"MEAN_MOTION_DOT":0.00011496,"MEAN_MOTION_DDOT":0},{"OBJECT_NAME":"FLOCK 4G-23","OBJECT_ID":"2025-009AQ","EPOCH":"2026-07-06T03:56:11.873184","CLASSIFICATION_TYPE":"U","MEAN_MOTION":15.3424733,"ECCENTRICITY":0.00026885,"INCLINATION":97.3925,"RA_OF_ASC_NODE":268.8363,"ARG_OF_PERICENTER":190.5514,"MEAN_ANOMALY":169.5673,"EPHEMERIS_TYPE":0,"NORAD_CAT_ID":62647,"ELEMENT_SET_NO":999,"REV_AT_EPOCH":8183,"BSTAR":0.001350289,"MEAN_MOTION_DOT":0.00044901,"MEAN_MOTION_DDOT":0},{"OBJECT_NAME":"FLOCK 4G-34","OBJECT_ID":"2025-009AT","EPOCH":"2026-07-06T03:56:51.415872","CLASSIFICATION_TYPE":"U","MEAN_MOTION":15.29654561,"ECCENTRICITY":0.00014842,"INCLINATION":97.3957,"RA_OF_ASC_NODE":268.6593,"ARG_OF_PERICENTER":184.9998,"MEAN_ANOMALY":175.1228,"EPHEMERIS_TYPE":0,"NORAD_CAT_ID":62650,"ELEMENT_SET_NO":999,"REV_AT_EPOCH":8181,"BSTAR":0.00038615197,"MEAN_MOTION_DOT":0.00011025,"MEAN_MOTION_DDOT":0},{"OBJECT_NAME":"FLOCK 4G-21","OBJECT_ID":"2025-009AU","EPOCH":"2026-07-06T03:59:17.297952","CLASSIFICATION_TYPE":"U","MEAN_MOTION":15.32419036,"ECCENTRICITY":0.00022973,"INCLINATION":97.3987,"RA_OF_ASC_NODE":269.6205,"ARG_OF_PERICENTER":217.7052,"MEAN_ANOMALY":142.4029,"EPHEMERIS_TYPE":0,"NORAD_CAT_ID":62651,"ELEMENT_SET_NO":999,"REV_AT_EPOCH":8186,"BSTAR":0.0012539895,"MEAN_MOTION_DOT":0.00039335,"MEAN_MOTION_DDOT":0},{"OBJECT_NAME":"FLOCK 4G-31","OBJECT_ID":"2025-009AV","EPOCH":"2026-07-06T04:38:15.783072","CLASSIFICATION_TYPE":"U","MEAN_MOTION":15.29458987,"ECCENTRICITY":0.00010912,"INCLINATION":97.3961,"RA_OF_ASC_NODE":268.6617,"ARG_OF_PERICENTER":173.8295,"MEAN_ANOMALY":186.2959,"EPHEMERIS_TYPE":0,"NORAD_CAT_ID":62652,"ELEMENT_SET_NO":999,"REV_AT_EPOCH":8181,"BSTAR":0.0003711428,"MEAN_MOTION_DOT":0.00010529,"MEAN_MOTION_DDOT":0},{"OBJECT_NAME":"FLOCK 4G-4","OBJECT_ID":"2025-009BC","EPOCH":"2026-07-06T04:19:01.346016","CLASSIFICATION_TYPE":"U","MEAN_MOTION":15.31705339,"ECCENTRICITY":0.00039112,"INCLINATION":97.3939,"RA_OF_ASC_NODE":268.4297,"ARG_OF_PERICENTER":220.479,"MEAN_ANOMALY":139.6161,"EPHEMERIS_TYPE":0,"NORAD_CAT_ID":62659,"ELEMENT_SET_NO":999,"REV_AT_EPOCH":13941,"BSTAR":0.0012614606,"MEAN_MOTION_DOT":0.00038701,"MEAN_MOTION_DDOT":0},{"OBJECT_NAME":"FLOCK 4G-6","OBJECT_ID":"2025-009BD","EPOCH":"2026-07-06T04:26:03.693408","CLASSIFICATION_TYPE":"U","MEAN_MOTION":15.29862438,"ECCENTRICITY":0.0002047,"INCLINATION":97.3932,"RA_OF_ASC_NODE":268.5027,"ARG_OF_PERICENTER":242.4087,"MEAN_ANOMALY":117.6946,"EPHEMERIS_TYPE":0,"NORAD_CAT_ID":62660,"ELEMENT_SET_NO":999,"REV_AT_EPOCH":13940,"BSTAR":0.00033379577,"MEAN_MOTION_DOT":0.0000958,"MEAN_MOTION_DDOT":0},{"OBJECT_NAME":"FLOCK 4G-2","OBJECT_ID":"2025-009BE","EPOCH":"2026-07-06T04:19:46.268832","CLASSIFICATION_TYPE":"U","MEAN_MOTION":15.30203609,"ECCENTRICITY":0.00029191,"INCLINATION":97.4002,"RA_OF_ASC_NODE":269.128,"ARG_OF_PERICENTER":240.3925,"MEAN_ANOMALY":119.7026,"EPHEMERIS_TYPE":0,"NORAD_CAT_ID":62661,"ELEMENT_SET_NO":999,"REV_AT_EPOCH":13943,"BSTAR":0.00039021015,"MEAN_MOTION_DOT":0.00011333,"MEAN_MOTION_DDOT":0},{"OBJECT_NAME":"FLOCK 4G-5","OBJECT_ID":"2025-009BG","EPOCH":"2026-07-06T04:17:24.334368","CLASSIFICATION_TYPE":"U","MEAN_MOTION":15.30796022,"ECCENTRICITY":0.00026441,"INCLINATION":97.4021,"RA_OF_ASC_NODE":269.5161,"ARG_OF_PERICENTER":215.0978,"MEAN_ANOMALY":145.0089,"EPHEMERIS_TYPE":0,"NORAD_CAT_ID":62663,"ELEMENT_SET_NO":999,"REV_AT_EPOCH":8184,"BSTAR":0.00035431597,"MEAN_MOTION_DOT":0.00010473,"MEAN_MOTION_DDOT":0},{"OBJECT_NAME":"FLOCK 4G-1","OBJECT_ID":"2025-009BK","EPOCH":"2026-07-06T03:56:49.769952","CLASSIFICATION_TYPE":"U","MEAN_MOTION":15.30062843,"ECCENTRICITY":0.00031692,"INCLINATION":97.4016,"RA_OF_ASC_NODE":269.0912,"ARG_OF_PERICENTER":236.1312,"MEAN_ANOMALY":123.9628,"EPHEMERIS_TYPE":0,"NORAD_CAT_ID":62666,"ELEMENT_SET_NO":999,"REV_AT_EPOCH":8181,"BSTAR":0.00038489632,"MEAN_MOTION_DOT":0.00011129,"MEAN_MOTION_DDOT":0},{"OBJECT_NAME":"FLOCK 4G-14","OBJECT_ID":"2025-009BL","EPOCH":"2026-07-06T04:37:46.234272","CLASSIFICATION_TYPE":"U","MEAN_MOTION":15.29610526,"ECCENTRICITY":0.00033031,"INCLINATION":97.4017,"RA_OF_ASC_NODE":268.9222,"ARG_OF_PERICENTER":230.7288,"MEAN_ANOMALY":129.366,"EPHEMERIS_TYPE":0,"NORAD_CAT_ID":62667,"ELEMENT_SET_NO":999,"REV_AT_EPOCH":8180,"BSTAR":0.00039578039,"MEAN_MOTION_DOT":0.00011288,"MEAN_MOTION_DDOT":0},{"OBJECT_NAME":"FLOCK 4G-10","OBJECT_ID":"2025-009BP","EPOCH":"2026-07-06T04:54:20.299968","CLASSIFICATION_TYPE":"U","MEAN_MOTION":15.29709483,"ECCENTRICITY":0.00029483,"INCLINATION":97.3916,"RA_OF_ASC_NODE":268.2418,"ARG_OF_PERICENTER":254.0979,"MEAN_ANOMALY":105.9936,"EPHEMERIS_TYPE":0,"NORAD_CAT_ID":62670,"ELEMENT_SET_NO":999,"REV_AT_EPOCH":13944,"BSTAR":0.00034033553,"MEAN_MOTION_DOT":0.00009723,"MEAN_MOTION_DDOT":0},{"OBJECT_NAME":"FLOCK 4G-36","OBJECT_ID":"2025-009BU","EPOCH":"2026-07-06T04:46:13.423872","CLASSIFICATION_TYPE":"U","MEAN_MOTION":15.29680802,"ECCENTRICITY":0.00035001,"INCLINATION":97.4005,"RA_OF_ASC_NODE":268.85,"ARG_OF_PERICENTER":237.3983,"MEAN_ANOMALY":122.692,"EPHEMERIS_TYPE":0,"NORAD_CAT_ID":62675,"ELEMENT_SET_NO":999,"REV_AT_EPOCH":8180,"BSTAR":0.00038628366,"MEAN_MOTION_DOT":0.00011039,"MEAN_MOTION_DDOT":0},{"OBJECT_NAME":"FLOCK 4G-15","OBJECT_ID":"2025-009BX","EPOCH":"2026-07-06T04:56:58.297056","CLASSIFICATION_TYPE":"U","MEAN_MOTION":15.29771976,"ECCENTRICITY":0.00037021,"INCLINATION":97.4007,"RA_OF_ASC_NODE":268.9985,"ARG_OF_PERICENTER":232.7752,"MEAN_ANOMALY":127.3151,"EPHEMERIS_TYPE":0,"NORAD_CAT_ID":62678,"ELEMENT_SET_NO":999,"REV_AT_EPOCH":13945,"BSTAR":0.00037604828,"MEAN_MOTION_DOT":0.00010774,"MEAN_MOTION_DDOT":0},{"OBJECT_NAME":"FLOCK 4G-30","OBJECT_ID":"2025-009BY","EPOCH":"2026-07-06T04:08:06.386496","CLASSIFICATION_TYPE":"U","MEAN_MOTION":15.33464533,"ECCENTRICITY":0.00034994,"INCLINATION":97.391,"RA_OF_ASC_NODE":268.446,"ARG_OF_PERICENTER":226.8334,"MEAN_ANOMALY":133.2617,"EPHEMERIS_TYPE":0,"NORAD_CAT_ID":62679,"ELEMENT_SET_NO":999,"REV_AT_EPOCH":13945,"BSTAR":0.001329768,"MEAN_MOTION_DOT":0.00043132,"MEAN_MOTION_DDOT":0},{"OBJECT_NAME":"FLOCK 4G-18","OBJECT_ID":"2025-009BZ","EPOCH":"2026-07-06T04:14:10.414752","CLASSIFICATION_TYPE":"U","MEAN_MOTION":15.31751674,"ECCENTRICITY":0.00053076,"INCLINATION":97.4001,"RA_OF_ASC_NODE":268.8582,"ARG_OF_PERICENTER":243.4069,"MEAN_ANOMALY":116.6629,"EPHEMERIS_TYPE":0,"NORAD_CAT_ID":62680,"ELEMENT_SET_NO":999,"REV_AT_EPOCH":13944,"BSTAR":0.0013069864,"MEAN_MOTION_DOT":0.00040173,"MEAN_MOTION_DDOT":0}]}
