FLOCK 4G-25             
1 62646U 25009AP  26187.16143878  .00011496  00000+0  39975-3 0  9998
2 62646  97.4008 269.1600 0001555 185.1131 175.0094 15.29879358 81826
FLOCK 4G-23             
1 62647U 25009AQ  26187.16402631  .00044901  00000+0  13503-2 0  9999
2 62647  97.3925 268.8363 0002688 190.5514 169.5673 15.34247330 81836
FLOCK 4G-34             
1 62650U 25009AT  26187.16448398  .00011025  00000+0  38615-3 0  9996
2 62650  97.3957 268.6593 0001484 184.9998 175.1228 15.29654561 81813
FLOCK 4G-21             
1 62651U 25009AU  26187.16617243  .00039335  00000+0  12540-2 0  9996
2 62651  97.3987 269.6205 0002297 217.7052 142.4029 15.32419036 81868
FLOCK 4G-31             
1 62652U 25009AV  26187.19323823  .00010529  00000+0  37114-3 0  9997
2 62652  97.3961 268.6617 0001091 173.8295 186.2959 15.29458987 81816
FLOCK 4G-4              
1 62659U 25009BC  26187.17987669  .00038701  00000+0  12615-2 0  9996
2 62659  97.3939 268.4297 0003911 220.4790 139.6161 15.31705339139418
FLOCK 4G-6              
1 62660U 25009BD  26187.18476497  .00009580  00000+0  33380-3 0  9997
2 62660  97.3932 268.5027 0002047 242.4087 117.6946 15.29862438139404
FLOCK 4G-2              
1 62661U 25009BE  26187.18039663  .00011333  00000+0  39021-3 0  9995
2 62661  97.4002 269.1280 0002919 240.3925 119.7026 15.30203609139434
FLOCK 4G-5              
1 62663U 25009BG  26187.17875387  .00010473  00000+0  35432-3 0  9993
2 62663  97.4021 269.5161 0002644 215.0978 145.0089 15.30796022 81849
FLOCK 4G-1              
1 62666U 25009BK  26187.16446493  .00011129  00000+0  38490-3 0  9993
2 62666  97.4016 269.0912 0003169 236.1312 123.9628 15.30062843 81812
FLOCK 4G-14             
1 62667U 25009BL  26187.19289623  .00011288  00000+0  39578-3 0  9991
2 62667  97.4017 268.9222 0003303 230.7288 129.3660 15.29610526 81808
FLOCK 4G-10             
1 62670U 25009BP  26187.20440162  .00009723  00000+0  34034-3 0  9997
2 62670  97.3916 268.2418 0002948 254.0979 105.9936 15.29709483139440
FLOCK 4G-36             
1 62675U 25009BU  26187.19876648  .00011039  00000+0  38628-3 0  9998
2 62675  97.4005 268.8500 0003500 237.3983 122.6920 15.29680802 81805
FLOCK 4G-15             
1 62678U 25009BX  26187.20623029  .00010774  00000+0  37605-3 0  9995
2 62678  97.4007 268.9985 0003702 232.7752 127.3151 15.29771976139451
FLOCK 4G-30             
1 62679U 25009BY  26187.17229614  .00043132  00000+0  13298-2 0  9999
2 62679  97.3910 268.4460 0003499 226.8334 133.2617 15.33464533139456
FLOCK 4G-18             
1 62680U 25009BZ  26187.17650943  .00040173  00000+0  13070-2 0  9994
2 62680  97.4001 268.8582 0005307 243.4069 116.6629 15.31751674139449
